{
  "type": "FeatureCollection",
  "features": [
    {
      "type": "Feature",
      "properties": {
        "norad_id": 34497,
        "name": "IRIDIUM 33 DEB",
        "group": "iridium-33-debris",
        "lat": 18.821131959270794,
        "lon": -134.8299962636282,
        "alt_km": 838.4239189134296,
        "timestamp": "2025-12-26T16:33:55.955890+00:00",
        "meta_object_name": "IRIDIUM 33 DEB",
        "meta_object_id": "1997-051GN",
        "meta_epoch": "2025-12-22T21:33:03.136608",
        "meta_mean_motion": 14.27482363,
        "meta_eccentricity": 0.00780484,
        "meta_inclination": 86.2769,
        "meta_ra_of_asc_node": 48.0617,
        "meta_arg_of_pericenter": 306.2683,
        "meta_mean_anomaly": 179.2919,
        "meta_ephemeris_type": 0,
        "meta_classification_type": "U",
        "meta_norad_cat_id": 34497,
        "meta_element_set_no": 999,
        "meta_rev_at_epoch": 87028,
        "meta_bstar": 0.00056228088,
        "meta_mean_motion_dot": 1.443e-05,
        "meta_mean_motion_ddot": 0,
        "tle_line1": "1 34497U 97051GN  25356.89795297  .00001443  00000+0  56228-3 0  9993",
        "tle_line2": "2 34497  86.2769  48.0617 0078048 306.2683 179.2919 14.27482363870281"
      },
      "geometry": {
        "type": "Point",
        "coordinates": [
          -134.8299962636282,
          18.821131959270794
        ]
      }
    },
    {
      "type": "Feature",
      "properties": {
        "norad_id": 34508,
        "name": "IRIDIUM 33 DEB",
        "group": "iridium-33-debris",
        "lat": 27.941310736661684,
        "lon": -85.20089382926972,
        "alt_km": 718.557224708491,
        "timestamp": "2025-12-26T16:33:55.955899+00:00",
        "meta_object_name": "IRIDIUM 33 DEB",
        "meta_object_id": "1997-051GZ",
        "meta_epoch": "2025-12-26T05:50:57.403680",
        "meta_mean_motion": 14.38526765,
        "meta_eccentricity": 0.00666864,
        "meta_inclination": 86.3698,
        "meta_ra_of_asc_node": 96.9181,
        "meta_arg_of_pericenter": 129.6959,
        "meta_mean_anomaly": 231.0146,
        "meta_ephemeris_type": 0,
        "meta_classification_type": "U",
        "meta_norad_cat_id": 34508,
        "meta_element_set_no": 999,
        "meta_rev_at_epoch": 87503,
        "meta_bstar": 0.001192249,
        "meta_mean_motion_dot": 3.759e-05,
        "meta_mean_motion_ddot": 0,
        "tle_line1": "1 34508U 97051GZ  25360.24371995  .00003759  00000+0  11922-2 0  9998",
        "tle_line2": "2 34508  86.3698  96.9181 0066686 129.6959 231.0146 14.38526765875036"
      },
      "geometry": {
        "type": "Point",
        "coordinates": [
          -85.20089382926972,
          27.941310736661684
        ]
      }
    },
    {
      "type": "Feature",
      "properties": {
        "norad_id": 34521,
        "name": "IRIDIUM 33 DEB",
        "group": "iridium-33-debris",
        "lat": 39.603689416901474,
        "lon": -158.59882113866706,
        "alt_km": 676.8470324363516,
        "timestamp": "2025-12-26T16:33:55.955908+00:00",
        "meta_object_name": "IRIDIUM 33 DEB",
        "meta_object_id": "1997-051HN",
        "meta_epoch": "2025-12-26T07:43:19.130880",
        "meta_mean_motion": 14.63478156,
        "meta_eccentricity": 0.00033037,
        "meta_inclination": 86.3789,
        "meta_ra_of_asc_node": 24.5668,
        "meta_arg_of_pericenter": 163.2959,
        "meta_mean_anomaly": 196.8363,
        "meta_ephemeris_type": 0,
        "meta_classification_type": "U",
        "meta_norad_cat_id": 34521,
        "meta_element_set_no": 999,
        "meta_rev_at_epoch": 88671,
        "meta_bstar": 0.00088506906,
        "meta_mean_motion_dot": 4.605e-05,
        "meta_mean_motion_ddot": 0,
        "tle_line1": "1 34521U 97051HN  25360.32174920  .00004605  00000+0  88507-3 0  9996",
        "tle_line2": "2 34521  86.3789  24.5668 0003303 163.2959 196.8363 14.63478156886714"
      },
      "geometry": {
        "type": "Point",
        "coordinates": [
          -158.59882113866706,
          39.603689416901474
        ]
      }
    },
    {
      "type": "Feature",
      "properties": {
        "norad_id": 34525,
        "name": "IRIDIUM 33 DEB",
        "group": "iridium-33-debris",
        "lat": 10.987775207856666,
        "lon": 41.594366141549436,
        "alt_km": 747.5713666187085,
        "timestamp": "2025-12-26T16:33:55.955918+00:00",
        "meta_object_name": "IRIDIUM 33 DEB",
        "meta_object_id": "1997-051HS",
        "meta_epoch": "2025-12-26T03:27:06.511104",
        "meta_mean_motion": 14.42936205,
        "meta_eccentricity": 0.00061755,
        "meta_inclination": 86.3716,
        "meta_ra_of_asc_node": 41.1217,
        "meta_arg_of_pericenter": 64.0766,
        "meta_mean_anomaly": 350.5685,
        "meta_ephemeris_type": 0,
        "meta_classification_type": "U",
        "meta_norad_cat_id": 34525,
        "meta_element_set_no": 999,
        "meta_rev_at_epoch": 88281,
        "meta_bstar": 0.00033086279,
        "meta_mean_motion_dot": 1.126e-05,
        "meta_mean_motion_ddot": 0,
        "tle_line1": "1 34525U 97051HS  25360.14382536  .00001126  00000+0  33086-3 0  9991",
        "tle_line2": "2 34525  86.3716  41.1217 0006175  64.0766 350.5685 14.42936205882811"
      },
      "geometry": {
        "type": "Point",
        "coordinates": [
          41.594366141549436,
          10.987775207856666
        ]
      }
    },
    {
      "type": "Feature",
      "properties": {
        "norad_id": 34529,
        "name": "IRIDIUM 33 DEB",
        "group": "iridium-33-debris",
        "lat": 29.203888242561806,
        "lon": -152.57371056288832,
        "alt_km": 750.7922197664257,
        "timestamp": "2025-12-26T16:33:55.955927+00:00",
        "meta_object_name": "IRIDIUM 33 DEB",
        "meta_object_id": "1997-051HW",
        "meta_epoch": "2025-12-25T13:11:48.680736",
        "meta_mean_motion": 14.40626161,
        "meta_eccentricity": 0.0006214,
        "meta_inclination": 86.3628,
        "meta_ra_of_asc_node": 29.95,
        "meta_arg_of_pericenter": 140.827,
        "meta_mean_anomaly": 219.338,
        "meta_ephemeris_type": 0,
        "meta_classification_type": "U",
        "meta_norad_cat_id": 34529,
        "meta_element_set_no": 999,
        "meta_rev_at_epoch": 88326,
        "meta_bstar": 0.00012953,
        "meta_mean_motion_dot": 4.33e-06,
        "meta_mean_motion_ddot": 0,
        "tle_line1": "1 34529U 97051HW  25359.54986899  .00000433  00000+0  12953-3 0  9999",
        "tle_line2": "2 34529  86.3628  29.9500 0006214 140.8270 219.3380 14.40626161883262"
      },
      "geometry": {
        "type": "Point",
        "coordinates": [
          -152.57371056288832,
          29.203888242561806
        ]
      }
    },
    {
      "type": "Feature",
      "properties": {
        "norad_id": 34538,
        "name": "IRIDIUM 33 DEB",
        "group": "iridium-33-debris",
        "lat": 86.01170919830633,
        "lon": 110.3699299721409,
        "alt_km": 764.5263772494254,
        "timestamp": "2025-12-26T16:33:55.955936+00:00",
        "meta_object_name": "IRIDIUM 33 DEB",
        "meta_object_id": "1997-051JF",
        "meta_epoch": "2025-12-24T17:48:32.243904",
        "meta_mean_motion": 14.42715706,
        "meta_eccentricity": 0.00319126,
        "meta_inclination": 86.2764,
        "meta_ra_of_asc_node": 0.2977,
        "meta_arg_of_pericenter": 286.3391,
        "meta_mean_anomaly": 132.9527,
        "meta_ephemeris_type": 0,
        "meta_classification_type": "U",
        "meta_norad_cat_id": 34538,
        "meta_element_set_no": 999,
        "meta_rev_at_epoch": 87929,
        "meta_bstar": 0.00092856968,
        "meta_mean_motion_dot": 3.127e-05,
        "meta_mean_motion_ddot": 0,
        "tle_line1": "1 34538U 97051JF  25358.74203986  .00003127  00000+0  92857-3 0  9993",
        "tle_line2": "2 34538  86.2764   0.2977 0031912 286.3391 132.9527 14.42715706879292"
      },
      "geometry": {
        "type": "Point",
        "coordinates": [
          110.3699299721409,
          86.01170919830633
        ]
      }
    },
    {
      "type": "Feature",
      "properties": {
        "norad_id": 34540,
        "name": "IRIDIUM 33 DEB",
        "group": "iridium-33-debris",
        "lat": -7.3771524319611155,
        "lon": -59.25004557645202,
        "alt_km": 653.7544397534348,
        "timestamp": "2025-12-26T16:33:55.955945+00:00",
        "meta_object_name": "IRIDIUM 33 DEB",
        "meta_object_id": "1997-051JH",
        "meta_epoch": "2025-12-26T07:30:51.838272",
        "meta_mean_motion": 14.75597732,
        "meta_eccentricity": 0.00184404,
        "meta_inclination": 86.311,
        "meta_ra_of_asc_node": 301.401,
        "meta_arg_of_pericenter": 114.305,
        "meta_mean_anomaly": 36.5387,
        "meta_ephemeris_type": 0,
        "meta_classification_type": "U",
        "meta_norad_cat_id": 34540,
        "meta_element_set_no": 999,
        "meta_rev_at_epoch": 89221,
        "meta_bstar": 0.0015801792,
        "meta_mean_motion_dot": 0.00010835,
        "meta_mean_motion_ddot": 0,
        "tle_line1": "1 34540U 97051JH  25360.31309998  .00010835  00000+0  15802-2 0  9990",
        "tle_line2": "2 34540  86.3110 301.4010 0018440 114.3050  36.5387 14.75597732892211"
      },
      "geometry": {
        "type": "Point",
        "coordinates": [
          -59.25004557645202,
          -7.3771524319611155
        ]
      }
    }
  ]
}